[{"OBJECT_NAME":"SL-8 R/B","OBJECT_ID":"1979-089B","EPOCH":"2026-03-08T11:55:44.050368","MEAN_MOTION":14.42350155,"ECCENTRICITY":0.00171653,"INCLINATION":74.0668,"RA_OF_ASC_NODE":93.2517,"ARG_OF_PERICENTER":266.0889,"MEAN_ANOMALY":93.8305,"EPHEMERIS_TYPE":0,"CLASSIFICATION_TYPE":"U","NORAD_CAT_ID":11574,"ELEMENT_SET_NO":999,"REV_AT_EPOCH":43593,"BSTAR":0.00013070417,"MEAN_MOTION_DOT":4.06e-6,"MEAN_MOTION_DDOT":0},{"OBJECT_NAME":"SL-14 R/B","OBJECT_ID":"1980-005B","EPOCH":"2026-03-08T15:41:31.845984","MEAN_MOTION":14.90929248,"ECCENTRICITY":0.00161016,"INCLINATION":82.5146,"RA_OF_ASC_NODE":308.2189,"ARG_OF_PERICENTER":161.5267,"MEAN_ANOMALY":198.6541,"EPHEMERIS_TYPE":0,"CLASSIFICATION_TYPE":"U","NORAD_CAT_ID":11672,"ELEMENT_SET_NO":999,"REV_AT_EPOCH":47633,"BSTAR":7.5654367e-5,"MEAN_MOTION_DOT":7.73e-6,"MEAN_MOTION_DDOT":0},{"OBJECT_NAME":"SL-8 R/B","OBJECT_ID":"1981-003B","EPOCH":"2026-03-08T14:38:21.586848","MEAN_MOTION":15.10927552,"ECCENTRICITY":0.02622955,"INCLINATION":82.9385,"RA_OF_ASC_NODE":291.0224,"ARG_OF_PERICENTER":182.3853,"MEAN_ANOMALY":177.6154,"EPHEMERIS_TYPE":0,"CLASSIFICATION_TYPE":"U","NORAD_CAT_ID":12139,"ELEMENT_SET_NO":999,"REV_AT_EPOCH":31451,"BSTAR":0.00068623099,"MEAN_MOTION_DOT":0.00026731,"MEAN_MOTION_DDOT":0},{"OBJECT_NAME":"SL-3 R/B","OBJECT_ID":"1981-046B","EPOCH":"2026-03-08T14:47:37.449024","MEAN_MOTION":15.41964694,"ECCENTRICITY":0.00196317,"INCLINATION":81.2298,"RA_OF_ASC_NODE":291.0332,"ARG_OF_PERICENTER":26.0348,"MEAN_ANOMALY":334.1877,"EPHEMERIS_TYPE":0,"CLASSIFICATION_TYPE":"U","NORAD_CAT_ID":12465,"ELEMENT_SET_NO":999,"REV_AT_EPOCH":43826,"BSTAR":0.00041561915,"MEAN_MOTION_DOT":0.00017861,"MEAN_MOTION_DDOT":0},{"OBJECT_NAME":"SL-3 R/B","OBJECT_ID":"1981-103B","EPOCH":"2026-03-08T14:07:19.698816","MEAN_MOTION":15.21362271,"ECCENTRICITY":0.00124842,"INCLINATION":81.159,"RA_OF_ASC_NODE":214.7237,"ARG_OF_PERICENTER":290.6647,"MEAN_ANOMALY":69.3246,"EPHEMERIS_TYPE":0,"CLASSIFICATION_TYPE":"U","NORAD_CAT_ID":12904,"ELEMENT_SET_NO":999,"REV_AT_EPOCH":97306,"BSTAR":0.00034501694,"MEAN_MOTION_DOT":7.772e-5,"MEAN_MOTION_DDOT":0},{"OBJECT_NAME":"SL-3 R/B","OBJECT_ID":"1982-013B","EPOCH":"2026-03-08T14:19:36.841152","MEAN_MOTION":15.22005837,"ECCENTRICITY":0.00226156,"INCLINATION":81.1763,"RA_OF_ASC_NODE":162.0511,"ARG_OF_PERICENTER":181.0617,"MEAN_ANOMALY":179.0571,"EPHEMERIS_TYPE":0,"CLASSIFICATION_TYPE":"U","NORAD_CAT_ID":13068,"ELEMENT_SET_NO":999,"REV_AT_EPOCH":40418,"BSTAR":0.0003160611,"MEAN_MOTION_DOT":7.293e-5,"MEAN_MOTION_DDOT":0},{"OBJECT_NAME":"SL-3 R/B","OBJECT_ID":"1982-039B","EPOCH":"2026-03-08T14:19:08.258304","MEAN_MOTION":15.10074549,"ECCENTRICITY":0.00297625,"INCLINATION":81.1585,"RA_OF_ASC_NODE":217.2219,"ARG_OF_PERICENTER":328.0593,"MEAN_ANOMALY":31.8827,"EPHEMERIS_TYPE":0,"CLASSIFICATION_TYPE":"U","NORAD_CAT_ID":13154,"ELEMENT_SET_NO":999,"REV_AT_EPOCH":38147,"BSTAR":0.00024404738,"MEAN_MOTION_DOT":4.036e-5,"MEAN_MOTION_DDOT":0},{"OBJECT_NAME":"SL-3 R/B","OBJECT_ID":"1982-079B","EPOCH":"2026-03-08T14:48:21.168288","MEAN_MOTION":15.24782909,"ECCENTRICITY":0.00250472,"INCLINATION":81.1483,"RA_OF_ASC_NODE":194.3434,"ARG_OF_PERICENTER":168.3785,"MEAN_ANOMALY":191.8032,"EPHEMERIS_TYPE":0,"CLASSIFICATION_TYPE":"U","NORAD_CAT_ID":13403,"ELEMENT_SET_NO":999,"REV_AT_EPOCH":37753,"BSTAR":0.00041147498,"MEAN_MOTION_DOT":0.0001032,"MEAN_MOTION_DDOT":0},{"OBJECT_NAME":"SL-14 R/B","OBJECT_ID":"1982-092B","EPOCH":"2026-03-08T15:27:59.960736","MEAN_MOTION":14.86665515,"ECCENTRICITY":0.00190497,"INCLINATION":82.5698,"RA_OF_ASC_NODE":142.3772,"ARG_OF_PERICENTER":307.2753,"MEAN_ANOMALY":170.0379,"EPHEMERIS_TYPE":0,"CLASSIFICATION_TYPE":"U","NORAD_CAT_ID":13553,"ELEMENT_SET_NO":999,"REV_AT_EPOCH":32877,"BSTAR":7.1316482e-5,"MEAN_MOTION_DOT":6.59e-6,"MEAN_MOTION_DDOT":0},{"OBJECT_NAME":"SL-3 R/B","OBJECT_ID":"1983-010B","EPOCH":"2026-03-08T12:45:21.805632","MEAN_MOTION":15.46309033,"ECCENTRICITY":0.00180985,"INCLINATION":81.1064,"RA_OF_ASC_NODE":3.6671,"ARG_OF_PERICENTER":54.9008,"MEAN_ANOMALY":305.3931,"EPHEMERIS_TYPE":0,"CLASSIFICATION_TYPE":"U","NORAD_CAT_ID":13819,"ELEMENT_SET_NO":999,"REV_AT_EPOCH":35776,"BSTAR":0.00046739489,"MEAN_MOTION_DOT":0.00023248,"MEAN_MOTION_DDOT":0},{"OBJECT_NAME":"SL-3 R/B","OBJECT_ID":"1983-075B","EPOCH":"2026-03-08T13:57:08.210592","MEAN_MOTION":15.38387344,"ECCENTRICITY":0.00200219,"INCLINATION":97.6145,"RA_OF_ASC_NODE":72.1165,"ARG_OF_PERICENTER":230.1673,"MEAN_ANOMALY":129.7811,"EPHEMERIS_TYPE":0,"CLASSIFICATION_TYPE":"U","NORAD_CAT_ID":14208,"ELEMENT_SET_NO":999,"REV_AT_EPOCH":32998,"BSTAR":0.00041556292,"MEAN_MOTION_DOT":0.00015762,"MEAN_MOTION_DDOT":0},{"OBJECT_NAME":"COSMOS 1536","OBJECT_ID":"1984-013A","EPOCH":"2026-03-08T14:29:09.798432","MEAN_MOTION":15.23809497,"ECCENTRICITY":0.00125177,"INCLINATION":82.5426,"RA_OF_ASC_NODE":108.9299,"ARG_OF_PERICENTER":287.8222,"MEAN_ANOMALY":72.1649,"EPHEMERIS_TYPE":0,"CLASSIFICATION_TYPE":"U","NORAD_CAT_ID":14699,"ELEMENT_SET_NO":999,"REV_AT_EPOCH":27245,"BSTAR":0.00036988679,"MEAN_MOTION_DOT":8.958e-5,"MEAN_MOTION_DDOT":0},{"OBJECT_NAME":"SL-14 R/B","OBJECT_ID":"1984-027B","EPOCH":"2026-03-08T13:09:42.609312","MEAN_MOTION":14.85975346,"ECCENTRICITY":0.00174306,"INCLINATION":82.5385,"RA_OF_ASC_NODE":246.0833,"ARG_OF_PERICENTER":341.7563,"MEAN_ANOMALY":18.3026,"EPHEMERIS_TYPE":0,"CLASSIFICATION_TYPE":"U","NORAD_CAT_ID":14820,"ELEMENT_SET_NO":999,"REV_AT_EPOCH":24746,"BSTAR":7.7799076e-5,"MEAN_MOTION_DOT":7.05e-6,"MEAN_MOTION_DDOT":0},{"OBJECT_NAME":"SL-8 R/B","OBJECT_ID":"1985-006B","EPOCH":"2026-03-08T14:45:25.283808","MEAN_MOTION":14.37781864,"ECCENTRICITY":0.00184783,"INCLINATION":74.0432,"RA_OF_ASC_NODE":263.1264,"ARG_OF_PERICENTER":181.2024,"MEAN_ANOMALY":243.033,"EPHEMERIS_TYPE":0,"CLASSIFICATION_TYPE":"U","NORAD_CAT_ID":15483,"ELEMENT_SET_NO":999,"REV_AT_EPOCH":15387,"BSTAR":0.00011885501,"MEAN_MOTION_DOT":3.32e-6,"MEAN_MOTION_DDOT":0},{"OBJECT_NAME":"SL-12 R/B(2)","OBJECT_ID":"1985-042D","EPOCH":"2026-03-08T12:25:41.163456","MEAN_MOTION":14.21982138,"ECCENTRICITY":0.00333218,"INCLINATION":71.1063,"RA_OF_ASC_NODE":90.2049,"ARG_OF_PERICENTER":130.0929,"MEAN_ANOMALY":31.0224,"EPHEMERIS_TYPE":0,"CLASSIFICATION_TYPE":"U","NORAD_CAT_ID":15772,"ELEMENT_SET_NO":999,"REV_AT_EPOCH":11422,"BSTAR":3.8013037e-5,"MEAN_MOTION_DOT":3.7e-7,"MEAN_MOTION_DDOT":0},{"OBJECT_NAME":"SL-14 R/B","OBJECT_ID":"1985-069B","EPOCH":"2026-03-08T14:25:14.015424","MEAN_MOTION":14.8643187,"ECCENTRICITY":0.00183679,"INCLINATION":82.5284,"RA_OF_ASC_NODE":25.9565,"ARG_OF_PERICENTER":191.3307,"MEAN_ANOMALY":168.7499,"EPHEMERIS_TYPE":0,"CLASSIFICATION_TYPE":"U","NORAD_CAT_ID":15945,"ELEMENT_SET_NO":999,"REV_AT_EPOCH":17267,"BSTAR":8.5240772e-5,"MEAN_MOTION_DOT":7.79e-6,"MEAN_MOTION_DDOT":0},{"OBJECT_NAME":"SL-16 R/B","OBJECT_ID":"1985-097B","EPOCH":"2026-03-08T15:57:18.676800","MEAN_MOTION":14.16599115,"ECCENTRICITY":0.00099355,"INCLINATION":71.0031,"RA_OF_ASC_NODE":142.7122,"ARG_OF_PERICENTER":260.9745,"MEAN_ANOMALY":261.2623,"EPHEMERIS_TYPE":0,"CLASSIFICATION_TYPE":"U","NORAD_CAT_ID":16182,"ELEMENT_SET_NO":999,"REV_AT_EPOCH":8708,"BSTAR":-6.6859859e-5,"MEAN_MOTION_DOT":-1.81e-6,"MEAN_MOTION_DDOT":0}]
